STARLINK-35714          
1 66214U 25244J   25317.58335648 -.01988797  00000+0 -25150-1 0  9990
2 66214  53.1592  54.0129 0001224  49.1492  20.1173 15.62284379  3526
STARLINK-35712          
1 66215U 25244K   25317.58335648 -.02003480  00000+0 -25361-1 0  9993
2 66215  53.1590  54.0049 0001278  55.1847  17.9288 15.62284720  3527
STARLINK-35709          
1 66216U 25244L   25317.58335648 -.01988342  00000+0 -25144-1 0  9991
2 66216  53.1592  54.0251 0001126  54.4631   9.0526 15.62284701  3526
STARLINK-35700          
1 66217U 25244M   25317.58335648 -.01990150  00000+0 -25171-1 0  9992
2 66217  53.1592  54.0213 0001132  47.1481  18.2858 15.62284387  3524
STARLINK-35722          
1 66218U 25244N   25317.58335648 -.01988524  00000+0 -25146-1 0  9997
2 66218  53.1592  54.0172 0001262  47.6679  19.6817 15.62283790  3524
STARLINK-35737          
1 66219U 25244P   25317.58335648 -.01989133  00000+0 -25154-1 0  9994
2 66219  53.1592  54.0095 0001203  54.0466  17.1351 15.62285762  3684
STARLINK-35677          
1 66220U 25244Q   25317.58335648 -.01992087  00000+0 -25195-1 0  9993
2 66220  53.1592  54.0016 0001226  53.8076  21.2074 15.62287499  3528
STARLINK-35704          
1 66221U 25244R   25317.58335648 -.01991726  00000+0 -25189-1 0  9996
2 66221  53.1593  53.9970 0001292  49.0680  27.8635 15.62286971  3527
STARLINK-35666          
1 66222U 25244S   25317.58335648 -.01983708  00000+0 -25074-1 0  9991
2 66222  53.1593  53.9894 0001365  57.7519  23.0076 15.62285719  3639
STARLINK-35664          
1 66223U 25244T   25317.58335648 -.01984594  00000+0 -25090-1 0  9994
2 66223  53.1592  53.9939 0001321  57.3081  21.5414 15.62282978  3634
STARLINK-35733          
1 66224U 25244U   25317.58335648 -.01989102  00000+0 -25152-1 0  9994
2 66224  53.1593  53.9816 0001315  57.7540  26.8460 15.62285751  3526
STARLINK-35734          
1 66225U 25244V   25317.58335648 -.01990679  00000+0 -25176-1 0  9992
2 66225  53.1593  53.9848 0001243  52.8481  29.8362 15.62285462  3525
