CCSDS_OMM_VERS = 2.0
CREATION_DATE  = 
ORIGINATOR     = 

OBJECT_NAME    = STARLINK-35714
OBJECT_ID      = 2025-244J
CENTER_NAME    = EARTH
REF_FRAME      = TEME
TIME_SYSTEM    = UTC
MEAN_ELEMENT_THEORY = SGP/SGP4

EPOCH          = 2025-11-13T14:00:01.999872
MEAN_MOTION    = 15.62284379
ECCENTRICITY   = .00012241
INCLINATION    = 53.1592
RA_OF_ASC_NODE = 54.0129
ARG_OF_PERICENTER = 49.1492
MEAN_ANOMALY   = 20.1173

EPHEMERIS_TYPE = 0
CLASSIFICATION_TYPE = U
NORAD_CAT_ID   = 66214
ELEMENT_SET_NO = 999
REV_AT_EPOCH   = 352
BSTAR          = -.25150215E-1
MEAN_MOTION_DOT = -.1988797E-1
MEAN_MOTION_DDOT = 0

CCSDS_OMM_VERS = 2.0
CREATION_DATE  = 
ORIGINATOR     = 

OBJECT_NAME    = STARLINK-35712
OBJECT_ID      = 2025-244K
CENTER_NAME    = EARTH
REF_FRAME      = TEME
TIME_SYSTEM    = UTC
MEAN_ELEMENT_THEORY = SGP/SGP4

EPOCH          = 2025-11-13T14:00:01.999872
MEAN_MOTION    = 15.62284720
ECCENTRICITY   = .00012788
INCLINATION    = 53.1590
RA_OF_ASC_NODE = 54.0049
ARG_OF_PERICENTER = 55.1847
MEAN_ANOMALY   = 17.9288

EPHEMERIS_TYPE = 0
CLASSIFICATION_TYPE = U
NORAD_CAT_ID   = 66215
ELEMENT_SET_NO = 999
REV_AT_EPOCH   = 352
BSTAR          = -.25361062E-1
MEAN_MOTION_DOT = -.200348E-1
MEAN_MOTION_DDOT = 0

CCSDS_OMM_VERS = 2.0
CREATION_DATE  = 
ORIGINATOR     = 

OBJECT_NAME    = STARLINK-35709
OBJECT_ID      = 2025-244L
CENTER_NAME    = EARTH
REF_FRAME      = TEME
TIME_SYSTEM    = UTC
MEAN_ELEMENT_THEORY = SGP/SGP4

EPOCH          = 2025-11-13T14:00:01.999872
MEAN_MOTION    = 15.62284701
ECCENTRICITY   = .00011263
INCLINATION    = 53.1592
RA_OF_ASC_NODE = 54.0251
ARG_OF_PERICENTER = 54.4631
MEAN_ANOMALY   = 9.0526

EPHEMERIS_TYPE = 0
CLASSIFICATION_TYPE = U
NORAD_CAT_ID   = 66216
ELEMENT_SET_NO = 999
REV_AT_EPOCH   = 352
BSTAR          = -.25144361E-1
MEAN_MOTION_DOT = -.1988342E-1
MEAN_MOTION_DDOT = 0

CCSDS_OMM_VERS = 2.0
CREATION_DATE  = 
ORIGINATOR     = 

OBJECT_NAME    = STARLINK-35700
OBJECT_ID      = 2025-244M
CENTER_NAME    = EARTH
REF_FRAME      = TEME
TIME_SYSTEM    = UTC
MEAN_ELEMENT_THEORY = SGP/SGP4

EPOCH          = 2025-11-13T14:00:01.999872
MEAN_MOTION    = 15.62284387
ECCENTRICITY   = .00011328
INCLINATION    = 53.1592
RA_OF_ASC_NODE = 54.0213
ARG_OF_PERICENTER = 47.1481
MEAN_ANOMALY   = 18.2858

EPHEMERIS_TYPE = 0
CLASSIFICATION_TYPE = U
NORAD_CAT_ID   = 66217
ELEMENT_SET_NO = 999
REV_AT_EPOCH   = 352
BSTAR          = -.25170652E-1
MEAN_MOTION_DOT = -.199015E-1
MEAN_MOTION_DDOT = 0

CCSDS_OMM_VERS = 2.0
CREATION_DATE  = 
ORIGINATOR     = 

OBJECT_NAME    = STARLINK-35722
OBJECT_ID      = 2025-244N
CENTER_NAME    = EARTH
REF_FRAME      = TEME
TIME_SYSTEM    = UTC
MEAN_ELEMENT_THEORY = SGP/SGP4

EPOCH          = 2025-11-13T14:00:01.999872
MEAN_MOTION    = 15.62283790
ECCENTRICITY   = .00012625
INCLINATION    = 53.1592
RA_OF_ASC_NODE = 54.0172
ARG_OF_PERICENTER = 47.6679
MEAN_ANOMALY   = 19.6817

EPHEMERIS_TYPE = 0
CLASSIFICATION_TYPE = U
NORAD_CAT_ID   = 66218
ELEMENT_SET_NO = 999
REV_AT_EPOCH   = 352
BSTAR          = -.25146456E-1
MEAN_MOTION_DOT = -.1988524E-1
MEAN_MOTION_DDOT = 0

CCSDS_OMM_VERS = 2.0
CREATION_DATE  = 
ORIGINATOR     = 

OBJECT_NAME    = STARLINK-35737
OBJECT_ID      = 2025-244P
CENTER_NAME    = EARTH
REF_FRAME      = TEME
TIME_SYSTEM    = UTC
MEAN_ELEMENT_THEORY = SGP/SGP4

EPOCH          = 2025-11-13T14:00:01.999872
MEAN_MOTION    = 15.62285762
ECCENTRICITY   = .00012035
INCLINATION    = 53.1592
RA_OF_ASC_NODE = 54.0095
ARG_OF_PERICENTER = 54.0466
MEAN_ANOMALY   = 17.1351

EPHEMERIS_TYPE = 0
CLASSIFICATION_TYPE = U
NORAD_CAT_ID   = 66219
ELEMENT_SET_NO = 999
REV_AT_EPOCH   = 368
BSTAR          = -.25153899E-1
MEAN_MOTION_DOT = -.1989133E-1
MEAN_MOTION_DDOT = 0

CCSDS_OMM_VERS = 2.0
CREATION_DATE  = 
ORIGINATOR     = 

OBJECT_NAME    = STARLINK-35677
OBJECT_ID      = 2025-244Q
CENTER_NAME    = EARTH
REF_FRAME      = TEME
TIME_SYSTEM    = UTC
MEAN_ELEMENT_THEORY = SGP/SGP4

EPOCH          = 2025-11-13T14:00:01.999872
MEAN_MOTION    = 15.62287499
ECCENTRICITY   = .00012266
INCLINATION    = 53.1592
RA_OF_ASC_NODE = 54.0016
ARG_OF_PERICENTER = 53.8076
MEAN_ANOMALY   = 21.2074

EPHEMERIS_TYPE = 0
CLASSIFICATION_TYPE = U
NORAD_CAT_ID   = 66220
ELEMENT_SET_NO = 999
REV_AT_EPOCH   = 352
BSTAR          = -.25194509E-1
MEAN_MOTION_DOT = -.1992087E-1
MEAN_MOTION_DDOT = 0

CCSDS_OMM_VERS = 2.0
CREATION_DATE  = 
ORIGINATOR     = 

OBJECT_NAME    = STARLINK-35704
OBJECT_ID      = 2025-244R
CENTER_NAME    = EARTH
REF_FRAME      = TEME
TIME_SYSTEM    = UTC
MEAN_ELEMENT_THEORY = SGP/SGP4

EPOCH          = 2025-11-13T14:00:01.999872
MEAN_MOTION    = 15.62286971
ECCENTRICITY   = .00012923
INCLINATION    = 53.1593
RA_OF_ASC_NODE = 53.9970
ARG_OF_PERICENTER = 49.0680
MEAN_ANOMALY   = 27.8635

EPHEMERIS_TYPE = 0
CLASSIFICATION_TYPE = U
NORAD_CAT_ID   = 66221
ELEMENT_SET_NO = 999
REV_AT_EPOCH   = 352
BSTAR          = -.25189129E-1
MEAN_MOTION_DOT = -.1991726E-1
MEAN_MOTION_DDOT = 0

CCSDS_OMM_VERS = 2.0
CREATION_DATE  = 
ORIGINATOR     = 

OBJECT_NAME    = STARLINK-35666
OBJECT_ID      = 2025-244S
CENTER_NAME    = EARTH
REF_FRAME      = TEME
TIME_SYSTEM    = UTC
MEAN_ELEMENT_THEORY = SGP/SGP4

EPOCH          = 2025-11-13T14:00:01.999872
MEAN_MOTION    = 15.62285719
ECCENTRICITY   = .0001365
INCLINATION    = 53.1593
RA_OF_ASC_NODE = 53.9894
ARG_OF_PERICENTER = 57.7519
MEAN_ANOMALY   = 23.0076

EPHEMERIS_TYPE = 0
CLASSIFICATION_TYPE = U
NORAD_CAT_ID   = 66222
ELEMENT_SET_NO = 999
REV_AT_EPOCH   = 363
BSTAR          = -.25074124E-1
MEAN_MOTION_DOT = -.1983708E-1
MEAN_MOTION_DDOT = 0

CCSDS_OMM_VERS = 2.0
CREATION_DATE  = 
ORIGINATOR     = 

OBJECT_NAME    = STARLINK-35664
OBJECT_ID      = 2025-244T
CENTER_NAME    = EARTH
REF_FRAME      = TEME
TIME_SYSTEM    = UTC
MEAN_ELEMENT_THEORY = SGP/SGP4

EPOCH          = 2025-11-13T14:00:01.999872
MEAN_MOTION    = 15.62282978
ECCENTRICITY   = .00013216
INCLINATION    = 53.1592
RA_OF_ASC_NODE = 53.9939
ARG_OF_PERICENTER = 57.3081
MEAN_ANOMALY   = 21.5414

EPHEMERIS_TYPE = 0
CLASSIFICATION_TYPE = U
NORAD_CAT_ID   = 66223
ELEMENT_SET_NO = 999
REV_AT_EPOCH   = 363
BSTAR          = -.25090044E-1
MEAN_MOTION_DOT = -.1984594E-1
MEAN_MOTION_DDOT = 0

CCSDS_OMM_VERS = 2.0
CREATION_DATE  = 
ORIGINATOR     = 

OBJECT_NAME    = STARLINK-35733
OBJECT_ID      = 2025-244U
CENTER_NAME    = EARTH
REF_FRAME      = TEME
TIME_SYSTEM    = UTC
MEAN_ELEMENT_THEORY = SGP/SGP4

EPOCH          = 2025-11-13T14:00:01.999872
MEAN_MOTION    = 15.62285751
ECCENTRICITY   = .00013154
INCLINATION    = 53.1593
RA_OF_ASC_NODE = 53.9816
ARG_OF_PERICENTER = 57.7540
MEAN_ANOMALY   = 26.8460

EPHEMERIS_TYPE = 0
CLASSIFICATION_TYPE = U
NORAD_CAT_ID   = 66224
ELEMENT_SET_NO = 999
REV_AT_EPOCH   = 352
BSTAR          = -.2515229E-1
MEAN_MOTION_DOT = -.1989102E-1
MEAN_MOTION_DDOT = 0

CCSDS_OMM_VERS = 2.0
CREATION_DATE  = 
ORIGINATOR     = 

OBJECT_NAME    = STARLINK-35734
OBJECT_ID      = 2025-244V
CENTER_NAME    = EARTH
REF_FRAME      = TEME
TIME_SYSTEM    = UTC
MEAN_ELEMENT_THEORY = SGP/SGP4

EPOCH          = 2025-11-13T14:00:01.999872
MEAN_MOTION    = 15.62285462
ECCENTRICITY   = .00012435
INCLINATION    = 53.1593
RA_OF_ASC_NODE = 53.9848
ARG_OF_PERICENTER = 52.8481
MEAN_ANOMALY   = 29.8362

EPHEMERIS_TYPE = 0
CLASSIFICATION_TYPE = U
NORAD_CAT_ID   = 66225
ELEMENT_SET_NO = 999
REV_AT_EPOCH   = 352
BSTAR          = -.25176053E-1
MEAN_MOTION_DOT = -.1990679E-1
MEAN_MOTION_DDOT = 0

